norad_id,name,regime,epoch,line1,line2,inclination,eccentricity,mean_motion,raan,arg_pericenter,mean_anomaly
20083,RADUGA 1-1,EGO,16059.83740328,1 20083U 89048A   16059.83740328 -.00000036  00000-0  00000+0 0  7669\,2 20083  15.3672   7.5028 0016478  57.0394 126.7631  0.98706285 94133,15.3672,0.0016478,0.98706285,7.5028,57.0394,126.7631
20083,RADUGA 1-1,EGO,16060.93091348,1 20083U 89048A   16060.93091348 -.00000011 +00000-0 +00000-0 0 0001\,2 20083 015.3674 007.4912 0016485 056.9956 155.3911 00.9870603609415,15.3674,0.0016485,0.98706036,7.4912,56.9956,155.3911
20083,RADUGA 1-1,EGO,16061.88162484,1 20083U 89048A   16061.88162484 +.00000007 +00000-0 +00000-0 0 0001\,2 20083 015.3677 007.4811 0016493 056.9507 133.2761 00.9870592809416,15.3677,0.0016493,0.98705928,7.4811,56.9507,133.2761
20083,RADUGA 1-1,EGO,16062.05403236,1 20083U 89048A   16062.05403236  .00000010  00000-0  00000+0 0  7673\,2 20083  15.3677   7.4793 0016496  56.9435 194.5489  0.98705910 94150,15.3677,0.0016496,0.9870591,7.4793,56.9435,194.5489
20083,RADUGA 1-1,EGO,16062.90368147,1 20083U 89048A   16062.90368147 +.00000020 +00000-0 +00000-0 0 0001\,2 20083 015.3679 007.4703 0016513 056.9052 136.5140 00.9870590509417,15.3679,0.0016513,0.98705905,7.4703,56.9052,136.514
20083,RADUGA 1-1,EGO,16063.37295134,1 20083U 89048A   16063.37295134  .00000000  00000-0  10000-3 0  7691\,2 20083  15.3679   7.4652 0016586  56.8710 303.3064  0.98701833 94172,15.3679,0.0016586,0.98701833,7.4652,56.871,303.3064
20083,RADUGA 1-1,EGO,16063.91326571,1 20083U 89048A   16063.91326571 +.00000026 +00000-0 +00000-0 0 0001\,2 20083 015.3682 007.4596 0016527 056.8728 135.3069 00.9870598609418,15.3682,0.0016527,0.98705986,7.4596,56.8728,135.3069
20083,RADUGA 1-1,EGO,16064.86094418,1 20083U 89048A   16064.86094418  .00000027  00000-0  00000+0 0  7704\,2 20083  15.3684   7.4496 0016545  56.8385 112.1036  0.98706149 94188,15.3684,0.0016545,0.98706149,7.4496,56.8385,112.1036
20083,RADUGA 1-1,EGO,16064.92654556,1 20083U 89048A   16064.92654556 +.00000026 +00000-0 +00000-0 0 0001\,2 20083 015.3684 007.4489 0016546 056.8446 135.4094 00.9870616609419,15.3684,0.0016546,0.98706166,7.4489,56.8446,135.4094
20083,RADUGA 1-1,EGO,16065.93998109,1 20083U 89048A   16065.93998109 +.00000020 +00000-0 +00000-0 0 0001\,2 20083 015.3687 007.4381 0016573 056.8273 135.5577 00.9870644509420,15.3687,0.0016573,0.98706445,7.4381,56.8273,135.5577
20083,RADUGA 1-1,EGO,16066.95528753,1 20083U 89048A   16066.95528753  .00000007  00000-0  00000+0 0  7719\,2 20083  15.3689   7.4273 0016602  56.8250 136.3563  0.98706783 94201,15.3689,0.0016602,0.98706783,7.4273,56.825,136.3563
20083,RADUGA 1-1,EGO,16067.95599043,1 20083U 89048A   16067.95599043 -.00000011 +00000-0 +00000-0 0 0001\,2 20083 015.3692 007.4167 0016630 056.8383 131.9516 00.9870718009422,15.3692,0.001663,0.9870718,7.4167,56.8383,131.9516
20083,RADUGA 1-1,EGO,16070.68387199,1 20083U 89048A   16070.68387199 -.00000079  00000-0  00000+0 0  7722\,2 20083  15.3698   7.3878 0016709  56.9761  21.1982  0.98708393 94235,15.3698,0.0016709,0.98708393,7.3878,56.9761,21.1982
20083,RADUGA 1-1,EGO,16073.03089795,1 20083U 89048A   16073.03089795 -.00000146  00000-0  00000+0 0  7731\,2 20083  15.3704   7.3629 0016763  57.1808 135.0469  0.98709388 94265,15.3704,0.0016763,0.98709388,7.3629,57.1808,135.0469
20083,RADUGA 1-1,EGO,16074.22120449,1 20083U 89048A   16074.22120449 -.00000177 +00000-0 +00000-0 0 0001\,2 20083 015.3707 007.3503 0016771 057.2949 197.9300 00.9870978709428,15.3707,0.0016771,0.98709787,7.3503,57.2949,197.93
20083,RADUGA 1-1,EGO,16075.05729289,1 20083U 89048A   16075.05729289 -.00000197  00000-0  00000+0 0  7741\,2 20083  15.3709   7.3415 0016774  57.3754 134.9697  0.98710012 94286,15.3709,0.0016774,0.98710012,7.3415,57.3754,134.9697
20083,RADUGA 1-1,EGO,16078.07695676,1 20083U 89048A   16078.07695676 -.00000246  00000-0  00000+0 0  7754\,2 20083  15.3716   7.3096 0016759  57.6357 127.8075  0.98710349 94312,15.3716,0.0016759,0.98710349,7.3096,57.6357,127.8075
20083,RADUGA 1-1,EGO,16078.78811279,1 20083U 89048A   16078.78811279 -.00000251 +00000-0 +00000-0 0 0001\,2 20083 015.3718 007.3021 0016764 057.7179 020.4484 00.9871030809433,15.3718,0.0016764,0.98710308,7.3021,57.7179,20.4484
20083,RADUGA 1-1,EGO,16080.13571657,1 20083U 89048A   16080.13571657 -.00000254  00000-0  00000+0 0  7766\,2 20083  15.3721   7.2879 0016754  57.7799 139.2847  0.98710163 94332,15.3721,0.0016754,0.98710163,7.2879,57.7799,139.2847
20083,RADUGA 1-1,EGO,16081.14946134,1 20083U 89048A   16081.14946134 -.00000250 +00000-0 +00000-0 0 0777\,2 20083 015.3724 007.2772 0016744 057.8217 139.4966 00.9870996909434,15.3724,0.0016744,0.98709969,7.2772,57.8217,139.4966
20083,RADUGA 1-1,EGO,16082.16026142,1 20083U 89048A   16082.16026142 -.00000242 +00000-0 +00000-0 0 0001\,2 20083 015.3726 007.2666 0016740 057.8625 138.6619 00.9870971009436,15.3726,0.001674,0.9870971,7.2666,57.8625,138.6619
20083,RADUGA 1-1,EGO,16084.42712234,1 20083U 89048A   16084.42712234 -.00000208  00000-0  00000+0 0  7781\,2 20083  15.3732   7.2427 0016710  57.8795 224.2125  0.98709013 94372,15.3732,0.001671,0.98709013,7.2427,57.8795,224.2125
20083,RADUGA 1-1,EGO,16087.15273067,1 20083U 89048A   16087.15273067 -.00000150  00000-0  00000+0 0  7797\,2 20083  15.3738   7.2140 0016693  57.8390 112.8343  0.98708029 94405,15.3738,0.0016693,0.98708029,7.214,57.839,112.8343
20083,RADUGA 1-1,EGO,16087.30698631,1 20083U 89048A   16087.30698631 -.00000146 +00000-0 +00000-0 0 0001\,2 20083 015.3739 007.2124 0016691 057.8421 167.6480 00.9870798209441,15.3739,0.0016691,0.98707982,7.2124,57.8421,167.648
20083,RADUGA 1-1,EGO,16088.47998312,1 20083U 89048A   16088.47998312 -.00000118 +00000-0 +00000-0 0 0001\,2 20083 015.3742 007.2001 0016684 057.8038 224.5237 00.9870759509442,15.3742,0.0016684,0.98707595,7.2001,57.8038,224.5237
20083,RADUGA 1-1,EGO,16091.40134130,1 20083U 89048A   16091.40134130 -.00000051  00000-0  00000+0 0  7809\,2 20083  15.3749   7.1693 0016720  57.7450 182.7137  0.98706837 94442,15.3749,0.001672,0.98706837,7.1693,57.745,182.7137
20083,RADUGA 1-1,EGO,16094.47131963,1 20083U 89048A   16094.47131963 -.00000003  00000-0  00000+0 0  7818\,2 20083  15.3756   7.1370 0016788  57.7551 193.6430  0.98706525 94472,15.3756,0.0016788,0.98706525,7.137,57.7551,193.643
20083,RADUGA 1-1,EGO,16095.56768536,1 20083U 89048A   16095.56768536 +.00000006 +00000-0 +00000-0 0 0001\,2 20083 015.3758 007.1254 0016812 057.7911 223.2079 00.9870654509449,15.3758,0.0016812,0.98706545,7.1254,57.7911,223.2079
20083,RADUGA 1-1,EGO,16096.52305896,1 20083U 89048A   16096.52305896  .00000008  00000-0  00000+0 0  7829\,2 20083  15.3761   7.1153 0016827  57.8225 202.6758  0.98706642 94496,15.3761,0.0016827,0.98706642,7.1153,57.8225,202.6758
20083,RADUGA 1-1,EGO,16099.32473270,1 20083U 89048A   16099.32473270 -.00000009  00000-0  00000+0 0  7835\,2 20083  15.3767   7.0857 0016894  58.0421 118.0557  0.98707253 94527,15.3767,0.0016894,0.98707253,7.0857,58.0421,118.0557
20083,RADUGA 1-1,EGO,16101.49535578,1 20083U 89048A   16101.49535578 -.00000046  00000-0  00000+0 0  7849\,2 20083  15.3771   7.0628 0016912  58.2557 169.1974  0.98707996 94547,15.3771,0.0016912,0.98707996,7.0628,58.2557,169.1974
20083,RADUGA 1-1,EGO,16102.18788470,1 20083U 89048A   16102.18788470 -.00000061 +00000-0 +00000-0 0 0001\,2 20083 015.3773 007.0555 0016914 058.3526 055.1988 00.9870824609456,15.3773,0.0016914,0.98708246,7.0555,58.3526,55.1988
20083,RADUGA 1-1,EGO,16103.29000696,1 20083U 89048A   16103.29000696 -.00000088 +00000-0 +00000-0 0 0001\,2 20083 015.3775 007.0439 0016914 058.4786 086.7269 00.9870868209457,15.3775,0.0016914,0.98708682,7.0439,58.4786,86.7269
20083,RADUGA 1-1,EGO,16105.27006751,1 20083U 89048A   16105.27006751 -.00000141  00000-0  00000+0 0  7852\,2 20083  15.3779   7.0230 0016904  58.6933  70.1585  0.98709470 94589,15.3779,0.0016904,0.9870947,7.023,58.6933,70.1585
20083,RADUGA 1-1,EGO,16105.59934873,1 20083U 89048A   16105.59934873 -.00000150 +00000-0 +00000-0 0 0001\,2 20083 015.3780 007.0196 0016903 058.7104 187.1575 00.9870960209459,15.378,0.0016903,0.98709602,7.0196,58.7104,187.1575
20083,RADUGA 1-1,EGO,16106.16751428,1 20083U 89048A   16106.16751428 -.00000165 +00000-0 +00000-0 0 0001\,2 20083 015.3781 007.0136 0016888 058.7563 029.0199 00.9870981409460,15.3781,0.0016888,0.98709814,7.0136,58.7563,29.0199
20083,RADUGA 1-1,EGO,16107.45593642,1 20083U 89048A   16107.45593642 -.00000198  00000-0  00000+0 0  7867\,2 20083  15.3784   7.0001 0016868  58.8262 126.8155  0.98710232 94600,15.3784,0.0016868,0.98710232,7.0001,58.8262,126.8155
20083,RADUGA 1-1,EGO,16108.74388565,1 20083U 89048A   16108.74388565 -.00000228 +00000-0 +00000-0 0 0001\,2 20083 015.3787 006.9865 0016860 058.9057 224.4346 00.9871054109462,15.3787,0.001686,0.98710541,6.9865,58.9057,224.4346
20083,RADUGA 1-1,EGO,16111.58753655,1 20083U 89048A   16111.58753655 -.00000269  00000-0  00000+0 0  7878\,2 20083  15.3793   6.9567 0016810  58.9497 154.9434  0.98710797 94645,15.3793,0.001681,0.98710797,6.9567,58.9497,154.9434
20083,RADUGA 1-1,EGO,16111.99904811,1 20083U 89048A   16111.99904811  .00000000  00000-0  10000-3 0  7894\,2 20083  15.3794   6.9527 0016867  59.0628 301.0676  0.98707027 94647,15.3794,0.0016867,0.98707027,6.9527,59.0628,301.0676
20083,RADUGA 1-1,EGO,16112.50344987,1 20083U 89048A   16112.50344987 -.00000273 +00000-0 +00000-0 0 0001\,2 20083 015.3795 006.9471 0016800 058.9538 120.4288 00.9871072609466,15.3795,0.00168,0.98710726,6.9471,58.9538,120.4288
20083,RADUGA 1-1,EGO,16113.68824609,1 20083U 89048A   16113.68824609 -.00000271  00000-0  00000+0 0  7906\,2 20083  15.3798   6.9347 0016792  58.9515 181.4733  0.98710521 94660,15.3798,0.0016792,0.98710521,6.9347,58.9515,181.4733
20083,RADUGA 1-1,EGO,16114.50531394,1 20083U 89048A   16114.50531394 -.00000266 +00000-0 +00000-0 0 0001\,2 20083 015.3799 006.9262 0016791 058.9412 111.8455 00.9871031609468,15.3799,0.0016791,0.98710316,6.9262,58.9412,111.8455
